$$SOE
2461295.500000000, A.D. 2026-Sep-12 00:00:00.0000, -4.086441010920274E+08, -6.288401429907630E+07, 1.079125590275063E+08,
2461302.500000000, A.D. 2026-Sep-19 00:00:00.0000, -4.074440411991222E+08, -7.177939804361795E+07, 1.048480019989997E+08,
2461309.500000000, A.D. 2026-Sep-26 00:00:00.0000, -4.059895575990305E+08, -8.062991559425217E+07, 1.017179652880551E+08,
2461316.500000000, A.D. 2026-Oct-03 00:00:00.0000, -4.042805531528127E+08, -8.942984353162499E+07, 9.852415196089149E+07,
2461323.500000000, A.D. 2026-Oct-10 00:00:00.0000, -4.023169920233780E+08, -9.817342318829511E+07, 9.526829495432478E+07,
2461330.500000000, A.D. 2026-Oct-17 00:00:00.0000, -4.000989016580284E+08, -1.068548573665815E+08, 9.195215865323651E+07,
2461337.500000000, A.D. 2026-Oct-24 00:00:00.0000, -3.976263750247555E+08, -1.154683071596730E+08, 8.857754053366636E+07,
2461344.500000000, A.D. 2026-Oct-31 00:00:00.0000, -3.948995730121173E+08, -1.240078889458808E+08, 8.514627285879567E+07,
2461351.500000000, A.D. 2026-Nov-07 00:00:00.0000, -3.919187266631069E+08, -1.324676714857282E+08, 8.166022440469082E+07,
2461358.500000000, A.D. 2026-Nov-14 00:00:00.0000, -3.886841390521378E+08, -1.408416722387702E+08, 7.812130227183521E+07,
2461365.500000000, A.D. 2026-Nov-21 00:00:00.0000, -3.851961886273031E+08, -1.491238522236618E+08, 7.453145400622882E+07,
2461372.500000000, A.D. 2026-Nov-28 00:00:00.0000, -3.814553350283528E+08, -1.573081124369289E+08, 7.089266987805618E+07,
2461379.500000000, A.D. 2026-Dec-05 00:00:00.0000, -3.774621237761977E+08, -1.653882924948103E+08, 6.720698493520880E+07,
2461386.500000000, A.D. 2026-Dec-12 00:00:00.0000, -3.732171896840618E+08, -1.733581683941200E+08, 6.347648107321046E+07,
2461393.500000000, A.D. 2026-Dec-19 00:00:00.0000, -3.687212608909165E+08, -1.812114493937032E+08, 5.970328929673613E+07,
2461400.500000000, A.D. 2026-Dec-26 00:00:00.0000, -3.639751636740834E+08, -1.889417748958455E+08, 5.588959211640213E+07,
2461407.500000000, A.D. 2027-Jan-02 00:00:00.0000, -3.589798277827539E+08, -1.965427115324007E+08, 5.203762604188158E+07,
2461414.500000000, A.D. 2027-Jan-09 00:00:00.0000, -3.537362921954263E+08, -2.040077504504501E+08, 4.814968416422240E+07,
2461421.500000000, A.D. 2027-Jan-16 00:00:00.0000, -3.482457112871119E+08, -2.113303048049349E+08, 4.422811882637237E+07,
2461428.500000000, A.D. 2027-Jan-23 00:00:00.0000, -3.425093613826665E+08, -2.185037075161430E+08, 4.027534437547693E+07,
2461435.500000000, A.D. 2027-Jan-30 00:00:00.0000, -3.365286475323157E+08, -2.255212093602324E+08, 3.629383997635737E+07,
2461442.500000000, A.D. 2027-Feb-06 00:00:00.0000, -3.303051101096868E+08, -2.323759770747958E+08, 3.228615247491857E+07,
2461449.500000000, A.D. 2027-Feb-13 00:00:00.0000, -3.238404317176491E+08, -2.390610902827826E+08, 2.825489945245131E+07,
2461456.500000000, A.D. 2027-Feb-20 00:00:00.0000, -3.171364467890486E+08, -2.455695380506074E+08, 2.420277262108345E+07,
2461463.500000000, A.D. 2027-Feb-27 00:00:00.0000, -3.101951525086963E+08, -2.518942183237500E+08, 2.013254116721025E+07,
2461470.500000000, A.D. 2027-Mar-06 00:00:00.0000, -3.030187180616886E+08, -2.580279383526762E+08, 1.604705492044549E+07,
2461477.500000000, A.D. 2027-Mar-13 00:00:00.0000, -2.956094938322752E+08, -2.639634140999494E+08, 1.194924765899734E+07,
2461484.500000000, A.D. 2027-Mar-20 00:00:00.0000, -2.879700217082834E+08, -2.696932695085945E+08, 7.842140582383603E+06,
2461491.500000000, A.D. 2027-Mar-27 00:00:00.0000, -2.801030463167167E+08, -2.752100362309108E+08, 3.728845882062584E+06,
2461498.500000000, A.D. 2027-Apr-03 00:00:00.0000, -2.720115270163527E+08, -2.805061539201204E+08, -3.874296204586327E+05,
2461505.500000000, A.D. 2027-Apr-10 00:00:00.0000, -2.636986506144331E+08, -2.855739711205590E+08, -4.503380781740770E+06,
2461512.500000000, A.D. 2027-Apr-17 00:00:00.0000, -2.551678448117505E+08, -2.904057468340682E+08, -8.615600406146795E+06,
2461519.500000000, A.D. 2027-Apr-24 00:00:00.0000, -2.464227923207455E+08, -2.949936528939189E+08, -1.272057550419880E+07,
2461526.500000000, A.D. 2027-May-01 00:00:00.0000, -2.374674453783798E+08, -2.993297771942549E+08, -1.681468358213973E+07,
2461533.500000000, A.D. 2027-May-08 00:00:00.0000, -2.283060403650004E+08, -3.034061271090137E+08, -2.089418895002142E+07,
2461540.500000000, A.D. 2027-May-15 00:00:00.0000, -2.189431140402140E+08, -3.072146322354220E+08, -2.495523885645072E+07,
2461547.500000000, A.D. 2027-May-22 00:00:00.0000, -2.093835229674586E+08, -3.107471491501642E+08, -2.899385954501595E+07,
2461554.500000000, A.D. 2027-May-29 00:00:00.0000, -1.996324627737818E+08, -3.139954697544325E+08, -3.300595269072634E+07,
2461561.500000000, A.D. 2027-Jun-05 00:00:00.0000, -1.896954863573338E+08, -3.169513301949130E+08, -3.698729207665724E+07,
2461568.500000000, A.D. 2027-Jun-12 00:00:00.0000, -1.795785230399013E+08, -3.196064200568699E+08, -4.093352033148466E+07,
2461575.500000000, A.D. 2027-Jun-19 00:00:00.0000, -1.692878989763232E+08, -3.219523929018046E+08, -4.484014582010122E+07,
2461582.500000000, A.D. 2027-Jun-26 00:00:00.0000, -1.588303585115238E+08, -3.239808785580072E+08, -4.870253978726049E+07,
2461589.500000000, A.D. 2027-Jul-03 00:00:00.0000, -1.482130863102968E+08, -3.256834973125653E+08, -5.251593382618575E+07,
2461596.500000000, A.D. 2027-Jul-10 00:00:00.0000, -1.374437301657383E+08, -3.270518761627342E+08, -5.627541774339931E+07,
2461603.500000000, A.D. 2027-Jul-17 00:00:00.0000, -1.265304243757557E+08, -3.280776673402647E+08, -5.997593790313229E+07,
2461610.500000000, A.D. 2027-Jul-24 00:00:00.0000, -1.154818134361853E+08, -3.287525693528615E+08, -6.361229615611254E+07,
2461617.500000000, A.D. 2027-Jul-31 00:00:00.0000, -1.043070755196761E+08, -3.290683504947451E+08, -6.717914946556252E+07,
2461624.500000000, A.D. 2027-Aug-07 00:00:00.0000, -9.301594579442143E+07, -3.290168738669061E+08, -7.067101022180675E+07,
2461631.500000000, A.D. 2027-Aug-14 00:00:00.0000, -8.161874170625828E+07, -3.285901243546240E+08, -7.408224716885565E+07,
2461638.500000000, A.D. 2027-Aug-21 00:00:00.0000, -7.012638939314699E+07, -3.277802411215734E+08, -7.740708739890842E+07,
2461645.500000000, A.D. 2027-Aug-28 00:00:00.0000, -5.855044755142748E+07, -3.265795546129545E+08, -8.063961976724550E+07,
2461652.500000000, A.D. 2027-Sep-04 00:00:00.0000, -4.690312964620385E+07, -3.249806257546887E+08, -8.377379956193334E+07,
2461659.500000000, A.D. 2027-Sep-11 00:00:00.0000, -3.519732552781673E+07, -3.229762881854767E+08, -8.680345451158284E+07,
2461666.500000000, A.D. 2027-Sep-18 00:00:00.0000, -2.344662193940394E+07, -3.205596943281606E+08, -8.972229236294390E+07,
2461673.500000000, A.D. 2027-Sep-25 00:00:00.0000, -1.166532125336485E+07, -3.177243655079350E+08, -9.252391022998616E+07,
2461680.500000000, A.D. 2027-Oct-02 00:00:00.0000, 1.315421268442769E+05, -3.144642461851550E+08, -9.520180589956327E+07,
2461687.500000000, A.D. 2027-Oct-09 00:00:00.0000, 1.192818826831335E+07, -3.107737623604803E+08, -9.774939128158467E+07,
2461694.500000000, A.D. 2027-Oct-16 00:00:00.0000, 2.370808177973146E+07, -3.066478842095942E+08, -1.001600082027791E+08,
2461701.500000000, A.D. 2027-Oct-23 00:00:00.0000, 3.545392636810529E+07, -3.020821928917516E+08, -1.024269467561041E+08,
2461708.500000000, A.D. 2027-Oct-30 00:00:00.0000, 4.714766496257578E+07, -2.970729507813972E+08, -1.045434663706111E+08,
2461715.500000000, A.D. 2027-Nov-06 00:00:00.0000, 5.877048499426949E+07, -2.916171737594788E+08, -1.065028195679501E+08,
2461722.500000000, A.D. 2027-Nov-13 00:00:00.0000, 7.030282763908055E+07, -2.857127072934324E+08, -1.082982785335220E+08,
2461729.500000000, A.D. 2027-Nov-20 00:00:00.0000, 8.172440475232279E+07, -2.793583080199898E+08, -1.099231650560102E+08,
2461736.500000000, A.D. 2027-Nov-27 00:00:00.0000, 9.301422596306778E+07, -2.725537272630757E+08, -1.113708838157987E+08,
2461743.500000000, A.D. 2027-Dec-04 00:00:00.0000, 1.041506347573238E+08, -2.652997948271291E+08, -1.126349587965577E+08,
2461750.500000000, A.D. 2027-Dec-11 00:00:00.0000, 1.151113538277172E+08, -2.575985031304848E+08, -1.137090728340631E+08,
2461757.500000000, A.D. 2027-Dec-18 00:00:00.0000, 1.258735407371840E+08, -2.494530909558775E+08, -1.145871102787823E+08,
2461764.500000000, A.D. 2027-Dec-25 00:00:00.0000, 1.364138547336857E+08, -2.408681255885779E+08, -1.152632026319813E+08,
2461771.500000000, A.D. 2028-Jan-01 00:00:00.0000, 1.467085353223171E+08, -2.318495819252263E+08, -1.157317769120049E+08,
$$EOE